{"type": "FeatureCollection", "features": [ {"type": "Feature", "properties": {"norad_id": 66478, "name": "STARLINK-35283", "group": "last-30-days", "lat": -42.2445855724621, "lon": 47.60538401761321, "alt_km": 391.7420118813943, "timestamp": "2025-12-03T13:52:08.345649+00:00", "meta": {"OBJECT_NAME": "STARLINK-35283", "OBJECT_ID": "2025-262Y", "EPOCH": "2025-12-03T08:00:01.999872", "MEAN_MOTION": 15.60449197, "ECCENTRICITY": 0.00017889, "INCLINATION": 42.9992, "RA_OF_ASC_NODE": 126.1188, "ARG_OF_PERICENTER": 266.2628, "MEAN_ANOMALY": 78.5181, "EPHEMERIS_TYPE": 0, "CLASSIFICATION_TYPE": "U", "NORAD_CAT_ID": 66478, "ELEMENT_SET_NO": 999, "REV_AT_EPOCH": 412, "BSTAR": -0.027805908, "MEAN_MOTION_DOT": -0.02055404, "MEAN_MOTION_DDOT": 0}, "tle": {"line1": "1 66478U 25262Y   25337.33335648 -.02055404  00000+0 -27806-1 0  9998", "line2": "2 66478  42.9992 126.1188 0001788 266.2628  78.5181 15.60449197  4124"}}, "geometry": {"type": "Point", "coordinates": [47.60538401761321, -42.2445855724621]}}, {"type": "Feature", "properties": {"norad_id": 66479, "name": "STARLINK-35581", "group": "last-30-days", "lat": -42.71429547437857, "lon": 42.45811565749723, "alt_km": 391.80841752511606, "timestamp": "2025-12-03T13:52:08.345662+00:00", "meta": {"OBJECT_NAME": "STARLINK-35581", "OBJECT_ID": "2025-262Z", "EPOCH": "2025-12-03T08:00:01.999872", "MEAN_MOTION": 15.60450214, "ECCENTRICITY": 0.00016794, "INCLINATION": 42.9991, "RA_OF_ASC_NODE": 126.1283, "ARG_OF_PERICENTER": 271.2415, "MEAN_ANOMALY": 69.7051, "EPHEMERIS_TYPE": 0, "CLASSIFICATION_TYPE": "U", "NORAD_CAT_ID": 66479, "ELEMENT_SET_NO": 999, "REV_AT_EPOCH": 412, "BSTAR": -0.027833264, "MEAN_MOTION_DOT": -0.02057148, "MEAN_MOTION_DDOT": 0}, "tle": {"line1": "1 66479U 25262Z   25337.33335648 -.02057148  00000+0 -27833-1 0  9996", "line2": "2 66479  42.9991 126.1283 0001679 271.2415  69.7051 15.60450214  4129"}}, "geometry": {"type": "Point", "coordinates": [42.45811565749723, -42.71429547437857]}}, {"type": "Feature", "properties": {"norad_id": 66480, "name": "STARLINK-35670", "group": "last-30-days", "lat": -41.92385909273396, "lon": 50.14457837038722, "alt_km": 391.83456197891337, "timestamp": "2025-12-03T13:52:08.345672+00:00", "meta": {"OBJECT_NAME": "STARLINK-35670", "OBJECT_ID": "2025-262AA", "EPOCH": "2025-12-03T08:00:01.999872", "MEAN_MOTION": 15.60448842, "ECCENTRICITY": 0.00016311, "INCLINATION": 42.999, "RA_OF_ASC_NODE": 126.1136, "ARG_OF_PERICENTER": 269.0837, "MEAN_ANOMALY": 77.6172, "EPHEMERIS_TYPE": 0, "CLASSIFICATION_TYPE": "U", "NORAD_CAT_ID": 66480, "ELEMENT_SET_NO": 999, "REV_AT_EPOCH": 412, "BSTAR": -0.027838697, "MEAN_MOTION_DOT": -0.02057364, "MEAN_MOTION_DDOT": 0}, "tle": {"line1": "1 66480U 25262AA  25337.33335648 -.02057364  00000+0 -27839-1 0  9994", "line2": "2 66480  42.9990 126.1136 0001631 269.0837  77.6172 15.60448842  4124"}}, "geometry": {"type": "Point", "coordinates": [50.14457837038722, -41.92385909273396]}}, {"type": "Feature", "properties": {"norad_id": 66481, "name": "STARLINK-35698", "group": "last-30-days", "lat": -41.548642997774515, "lon": 52.65137236709114, "alt_km": 391.78077388983183, "timestamp": "2025-12-03T13:52:08.345684+00:00", "meta": {"OBJECT_NAME": "STARLINK-35698", "OBJECT_ID": "2025-262AB", "EPOCH": "2025-12-03T08:00:01.999872", "MEAN_MOTION": 15.60449282, "ECCENTRICITY": 0.00016723, "INCLINATION": 42.9991, "RA_OF_ASC_NODE": 126.1085, "ARG_OF_PERICENTER": 272.7885, "MEAN_ANOMALY": 75.827, "EPHEMERIS_TYPE": 0, "CLASSIFICATION_TYPE": "U", "NORAD_CAT_ID": 66481, "ELEMENT_SET_NO": 999, "REV_AT_EPOCH": 412, "BSTAR": -0.027823945, "MEAN_MOTION_DOT": -0.02056477, "MEAN_MOTION_DDOT": 0}, "tle": {"line1": "1 66481U 25262AB  25337.33335648 -.02056477  00000+0 -27824-1 0  9993", "line2": "2 66481  42.9991 126.1085 0001672 272.7885  75.8270 15.60449282  4126"}}, "geometry": {"type": "Point", "coordinates": [52.65137236709114, -41.548642997774515]}}, {"type": "Feature", "properties": {"norad_id": 66482, "name": "STARLINK-35648", "group": "last-30-days", "lat": -41.11802569429377, "lon": 55.13561408362321, "alt_km": 391.87677303022883, "timestamp": "2025-12-03T13:52:08.345694+00:00", "meta": {"OBJECT_NAME": "STARLINK-35648", "OBJECT_ID": "2025-262AC", "EPOCH": "2025-12-03T08:00:01.999872", "MEAN_MOTION": 15.60449976, "ECCENTRICITY": 0.00015451, "INCLINATION": 42.9993, "RA_OF_ASC_NODE": 126.1038, "ARG_OF_PERICENTER": 268.589, "MEAN_ANOMALY": 81.9449, "EPHEMERIS_TYPE": 0, "CLASSIFICATION_TYPE": "U", "NORAD_CAT_ID": 66482, "ELEMENT_SET_NO": 999, "REV_AT_EPOCH": 397, "BSTAR": -0.02783778, "MEAN_MOTION_DOT": -0.02057315, "MEAN_MOTION_DDOT": 0}, "tle": {"line1": "1 66482U 25262AC  25337.33335648 -.02057315  00000+0 -27838-1 0  9991", "line2": "2 66482  42.9993 126.1038 0001545 268.5890  81.9449 15.60449976  3973"}}, "geometry": {"type": "Point", "coordinates": [55.13561408362321, -41.11802569429377]}}, {"type": "Feature", "properties": {"norad_id": 66483, "name": "STARLINK-35654", "group": "last-30-days", "lat": -40.63536842811787, "lon": 57.57946419856974, "alt_km": 391.742299536053, "timestamp": "2025-12-03T13:52:08.345704+00:00", "meta": {"OBJECT_NAME": "STARLINK-35654", "OBJECT_ID": "2025-262AD", "EPOCH": "2025-12-03T08:00:01.999872", "MEAN_MOTION": 15.60449927, "ECCENTRICITY": 0.00017335, "INCLINATION": 42.9993, "RA_OF_ASC_NODE": 126.0979, "ARG_OF_PERICENTER": 268.7057, "MEAN_ANOMALY": 83.7439, "EPHEMERIS_TYPE": 0, "CLASSIFICATION_TYPE": "U", "NORAD_CAT_ID": 66483, "ELEMENT_SET_NO": 999, "REV_AT_EPOCH": 412, "BSTAR": -0.027830123, "MEAN_MOTION_DOT": -0.02056969, "MEAN_MOTION_DDOT": 0}, "tle": {"line1": "1 66483U 25262AD  25337.33335648 -.02056969  00000+0 -27830-1 0  9998", "line2": "2 66483  42.9993 126.0979 0001733 268.7057  83.7439 15.60449927  4126"}}, "geometry": {"type": "Point", "coordinates": [57.57946419856974, -40.63536842811787]}}, {"type": "Feature", "properties": {"norad_id": 66484, "name": "STARLINK-35371", "group": "last-30-days", "lat": -40.10180394046505, "lon": 59.98919545182693, "alt_km": 391.7742539708761, "timestamp": "2025-12-03T13:52:08.345714+00:00", "meta": {"OBJECT_NAME": "STARLINK-35371", "OBJECT_ID": "2025-262AE", "EPOCH": "2025-12-03T08:00:01.999872", "MEAN_MOTION": 15.60448375, "ECCENTRICITY": 0.00016581, "INCLINATION": 42.9995, "RA_OF_ASC_NODE": 126.0944, "ARG_OF_PERICENTER": 269.8557, "MEAN_ANOMALY": 84.5121, "EPHEMERIS_TYPE": 0, "CLASSIFICATION_TYPE": "U", "NORAD_CAT_ID": 66484, "ELEMENT_SET_NO": 999, "REV_AT_EPOCH": 412, "BSTAR": -0.027802726, "MEAN_MOTION_DOT": -0.02055035, "MEAN_MOTION_DDOT": 0}, "tle": {"line1": "1 66484U 25262AE  25337.33335648 -.02055035  00000+0 -27803-1 0  9992", "line2": "2 66484  42.9995 126.0944 0001658 269.8557  84.5121 15.60448375  4127"}}, "geometry": {"type": "Point", "coordinates": [59.98919545182693, -40.10180394046505]}}, {"type": "Feature", "properties": {"norad_id": 66485, "name": "STARLINK-34774", "group": "last-30-days", "lat": 16.62666534563942, "lon": -162.13126013511862, "alt_km": 353.8601855756897, "timestamp": "2025-12-03T13:52:08.345725+00:00", "meta": {"OBJECT_NAME": "STARLINK-34774", "OBJECT_ID": "2025-263A", "EPOCH": "2025-12-03T08:00:01.999872", "MEAN_MOTION": 15.7209784, "ECCENTRICITY": 0.00017249, "INCLINATION": 42.9992, "RA_OF_ASC_NODE": 180.6534, "ARG_OF_PERICENTER": 275.1863, "MEAN_ANOMALY": 164.6122, "EPHEMERIS_TYPE": 0, "CLASSIFICATION_TYPE": "U", "NORAD_CAT_ID": 66485, "ELEMENT_SET_NO": 999, "REV_AT_EPOCH": 412, "BSTAR": -0.016640591, "MEAN_MOTION_DOT": -0.01988954, "MEAN_MOTION_DDOT": 0}, "tle": {"line1": "1 66485U 25263A   25337.33335648 -.01988954  00000+0 -16641-1 0  9996", "line2": "2 66485  42.9992 180.6534 0001724 275.1863 164.6122 15.72097840  4121"}}, "geometry": {"type": "Point", "coordinates": [-162.13126013511862, 16.62666534563942]}}, {"type": "Feature", "properties": {"norad_id": 66486, "name": "STARLINK-34844", "group": "last-30-days", "lat": 17.859501164222184, "lon": -160.5985063046317, "alt_km": 353.8435333533662, "timestamp": "2025-12-03T13:52:08.345737+00:00", "meta": {"OBJECT_NAME": "STARLINK-34844", "OBJECT_ID": "2025-263B", "EPOCH": "2025-12-03T08:00:01.999872", "MEAN_MOTION": 15.72095403, "ECCENTRICITY": 0.00016535, "INCLINATION": 42.9993, "RA_OF_ASC_NODE": 180.6477, "ARG_OF_PERICENTER": 268.5947, "MEAN_ANOMALY": 173.1246, "EPHEMERIS_TYPE": 0, "CLASSIFICATION_TYPE": "U", "NORAD_CAT_ID": 66486, "ELEMENT_SET_NO": 999, "REV_AT_EPOCH": 407, "BSTAR": -0.016640886, "MEAN_MOTION_DOT": -0.0198874, "MEAN_MOTION_DDOT": 0}, "tle": {"line1": "1 66486U 25263B   25337.33335648 -.01988740  00000+0 -16641-1 0  9990", "line2": "2 66486  42.9993 180.6477 0001653 268.5947 173.1246 15.72095403  4078"}}, "geometry": {"type": "Point", "coordinates": [-160.5985063046317, 17.859501164222184]}}, {"type": "Feature", "properties": {"norad_id": 66487, "name": "STARLINK-34733", "group": "last-30-days", "lat": 19.081495621005203, "lon": -159.04140047067222, "alt_km": 353.54229011521693, "timestamp": "2025-12-03T13:52:08.345749+00:00", "meta": {"OBJECT_NAME": "STARLINK-34733", "OBJECT_ID": "2025-263C", "EPOCH": "2025-12-03T08:00:01.999872", "MEAN_MOTION": 15.72094082, "ECCENTRICITY": 0.00016626, "INCLINATION": 42.9994, "RA_OF_ASC_NODE": 180.6432, "ARG_OF_PERICENTER": 275.4139, "MEAN_ANOMALY": 168.2238, "EPHEMERIS_TYPE": 0, "CLASSIFICATION_TYPE": "U", "NORAD_CAT_ID": 66487, "ELEMENT_SET_NO": 999, "REV_AT_EPOCH": 412, "BSTAR": -0.016625488, "MEAN_MOTION_DOT": -0.01987024, "MEAN_MOTION_DDOT": 0}, "tle": {"line1": "1 66487U 25263C   25337.33335648 -.01987024  00000+0 -16625-1 0  9997", "line2": "2 66487  42.9994 180.6432 0001662 275.4139 168.2238 15.72094082  4125"}}, "geometry": {"type": "Point", "coordinates": [-159.04140047067222, 19.081495621005203]}}]}